CCSDS_OMM_VERS = 2.0
CREATION_DATE  = 
ORIGINATOR     = 

OBJECT_NAME    = STARLINK-37041
OBJECT_ID      = 2026-044D
CENTER_NAME    = EARTH
REF_FRAME      = TEME
TIME_SYSTEM    = UTC
MEAN_ELEMENT_THEORY = SGP/SGP4

EPOCH          = 2026-03-21T22:00:00.999936
MEAN_MOTION    = 15.75162267
ECCENTRICITY   = .00012014
INCLINATION    = 97.2836
RA_OF_ASC_NODE = 41.6641
ARG_OF_PERICENTER = 89.4983
MEAN_ANOMALY   = 318.7040

EPHEMERIS_TYPE = 0
CLASSIFICATION_TYPE = U
NORAD_CAT_ID   = 68104
ELEMENT_SET_NO = 999
REV_AT_EPOCH   = 331
BSTAR          = .33796317E-3
MEAN_MOTION_DOT = .50517E-3
MEAN_MOTION_DDOT = 0

CCSDS_OMM_VERS = 2.0
CREATION_DATE  = 
ORIGINATOR     = 

OBJECT_NAME    = STARLINK-37021
OBJECT_ID      = 2026-044E
CENTER_NAME    = EARTH
REF_FRAME      = TEME
TIME_SYSTEM    = UTC
MEAN_ELEMENT_THEORY = SGP/SGP4

EPOCH          = 2026-03-21T22:00:00.999936
MEAN_MOTION    = 15.75288649
ECCENTRICITY   = .00015325
INCLINATION    = 97.2834
RA_OF_ASC_NODE = 41.6658
ARG_OF_PERICENTER = 75.4063
MEAN_ANOMALY   = 340.7359

EPHEMERIS_TYPE = 0
CLASSIFICATION_TYPE = U
NORAD_CAT_ID   = 68105
ELEMENT_SET_NO = 999
REV_AT_EPOCH   = 331
BSTAR          = -.15933314E-2
MEAN_MOTION_DOT = -.232442E-2
MEAN_MOTION_DDOT = 0

CCSDS_OMM_VERS = 2.0
CREATION_DATE  = 
ORIGINATOR     = 

OBJECT_NAME    = STARLINK-37024
OBJECT_ID      = 2026-044F
CENTER_NAME    = EARTH
REF_FRAME      = TEME
TIME_SYSTEM    = UTC
MEAN_ELEMENT_THEORY = SGP/SGP4

EPOCH          = 2026-03-21T22:00:00.999936
MEAN_MOTION    = 15.75693394
ECCENTRICITY   = .00013243
INCLINATION    = 97.2837
RA_OF_ASC_NODE = 41.6691
ARG_OF_PERICENTER = 92.2161
MEAN_ANOMALY   = 329.7163

EPHEMERIS_TYPE = 0
CLASSIFICATION_TYPE = U
NORAD_CAT_ID   = 68106
ELEMENT_SET_NO = 999
REV_AT_EPOCH   = 331
BSTAR          = -.51793738E-2
MEAN_MOTION_DOT = -.726088E-2
MEAN_MOTION_DDOT = 0

CCSDS_OMM_VERS = 2.0
CREATION_DATE  = 
ORIGINATOR     = 

OBJECT_NAME    = STARLINK-37005
OBJECT_ID      = 2026-044G
CENTER_NAME    = EARTH
REF_FRAME      = TEME
TIME_SYSTEM    = UTC
MEAN_ELEMENT_THEORY = SGP/SGP4

EPOCH          = 2026-03-21T22:00:00.999936
MEAN_MOTION    = 15.75133076
ECCENTRICITY   = .00008498
INCLINATION    = 97.2835
RA_OF_ASC_NODE = 41.6620
ARG_OF_PERICENTER = 68.5829
MEAN_ANOMALY   = 337.6192

EPHEMERIS_TYPE = 0
CLASSIFICATION_TYPE = U
NORAD_CAT_ID   = 68107
ELEMENT_SET_NO = 999
REV_AT_EPOCH   = 331
BSTAR          = .24970832E-3
MEAN_MOTION_DOT = .37185E-3
MEAN_MOTION_DDOT = 0

CCSDS_OMM_VERS = 2.0
CREATION_DATE  = 
ORIGINATOR     = 

OBJECT_NAME    = STARLINK-37017
OBJECT_ID      = 2026-044H
CENTER_NAME    = EARTH
REF_FRAME      = TEME
TIME_SYSTEM    = UTC
MEAN_ELEMENT_THEORY = SGP/SGP4

EPOCH          = 2026-03-21T22:00:00.999936
MEAN_MOTION    = 15.75256059
ECCENTRICITY   = .00014429
INCLINATION    = 97.2837
RA_OF_ASC_NODE = 41.6704
ARG_OF_PERICENTER = 81.9684
MEAN_ANOMALY   = 342.2004

EPHEMERIS_TYPE = 0
CLASSIFICATION_TYPE = U
NORAD_CAT_ID   = 68108
ELEMENT_SET_NO = 999
REV_AT_EPOCH   = 331
BSTAR          = -.83492902E-3
MEAN_MOTION_DOT = -.12324E-2
MEAN_MOTION_DDOT = 0

CCSDS_OMM_VERS = 2.0
CREATION_DATE  = 
ORIGINATOR     = 

OBJECT_NAME    = STARLINK-36833
OBJECT_ID      = 2026-044J
CENTER_NAME    = EARTH
REF_FRAME      = TEME
TIME_SYSTEM    = UTC
MEAN_ELEMENT_THEORY = SGP/SGP4

EPOCH          = 2026-03-21T22:00:00.999936
MEAN_MOTION    = 15.75165048
ECCENTRICITY   = .00018409
INCLINATION    = 97.2835
RA_OF_ASC_NODE = 41.6721
ARG_OF_PERICENTER = 111.4032
MEAN_ANOMALY   = 320.7903

EPHEMERIS_TYPE = 0
CLASSIFICATION_TYPE = U
NORAD_CAT_ID   = 68109
ELEMENT_SET_NO = 999
REV_AT_EPOCH   = 336
BSTAR          = -.87152041E-4
MEAN_MOTION_DOT = -.13096E-3
MEAN_MOTION_DDOT = 0

CCSDS_OMM_VERS = 2.0
CREATION_DATE  = 
ORIGINATOR     = 

OBJECT_NAME    = STARLINK-36830
OBJECT_ID      = 2026-044K
CENTER_NAME    = EARTH
REF_FRAME      = TEME
TIME_SYSTEM    = UTC
MEAN_ELEMENT_THEORY = SGP/SGP4

EPOCH          = 2026-03-21T22:00:00.999936
MEAN_MOTION    = 15.75181827
ECCENTRICITY   = .00017125
INCLINATION    = 97.2836
RA_OF_ASC_NODE = 41.6710
ARG_OF_PERICENTER = 117.7411
MEAN_ANOMALY   = 310.4441

EPHEMERIS_TYPE = 0
CLASSIFICATION_TYPE = U
NORAD_CAT_ID   = 68110
ELEMENT_SET_NO = 999
REV_AT_EPOCH   = 336
BSTAR          = -.35482423E-3
MEAN_MOTION_DOT = -.52712E-3
MEAN_MOTION_DDOT = 0

CCSDS_OMM_VERS = 2.0
CREATION_DATE  = 
ORIGINATOR     = 

OBJECT_NAME    = STARLINK-36791
OBJECT_ID      = 2026-044L
CENTER_NAME    = EARTH
REF_FRAME      = TEME
TIME_SYSTEM    = UTC
MEAN_ELEMENT_THEORY = SGP/SGP4

EPOCH          = 2026-03-21T22:00:00.999936
MEAN_MOTION    = 15.75936814
ECCENTRICITY   = .000129
INCLINATION    = 97.2837
RA_OF_ASC_NODE = 41.6765
ARG_OF_PERICENTER = 92.7532
MEAN_ANOMALY   = 347.0165

EPHEMERIS_TYPE = 0
CLASSIFICATION_TYPE = U
NORAD_CAT_ID   = 68111
ELEMENT_SET_NO = 999
REV_AT_EPOCH   = 331
BSTAR          = -.72180908E-2
MEAN_MOTION_DOT = -.990952E-2
MEAN_MOTION_DDOT = 0

CCSDS_OMM_VERS = 2.0
CREATION_DATE  = 
ORIGINATOR     = 

OBJECT_NAME    = STARLINK-36893
OBJECT_ID      = 2026-044M
CENTER_NAME    = EARTH
REF_FRAME      = TEME
TIME_SYSTEM    = UTC
MEAN_ELEMENT_THEORY = SGP/SGP4

EPOCH          = 2026-03-21T22:00:00.999936
MEAN_MOTION    = 15.76522409
ECCENTRICITY   = .00014536
INCLINATION    = 97.2837
RA_OF_ASC_NODE = 41.6784
ARG_OF_PERICENTER = 88.4287
MEAN_ANOMALY   = 356.9318

EPHEMERIS_TYPE = 0
CLASSIFICATION_TYPE = U
NORAD_CAT_ID   = 68112
ELEMENT_SET_NO = 999
REV_AT_EPOCH   = 336
BSTAR          = -.12082713E-1
MEAN_MOTION_DOT = -.1692306E-1
MEAN_MOTION_DDOT = 0

CCSDS_OMM_VERS = 2.0
CREATION_DATE  = 
ORIGINATOR     = 

OBJECT_NAME    = STARLINK-36937
OBJECT_ID      = 2026-044N
CENTER_NAME    = EARTH
REF_FRAME      = TEME
TIME_SYSTEM    = UTC
MEAN_ELEMENT_THEORY = SGP/SGP4

EPOCH          = 2026-03-21T22:00:00.999936
MEAN_MOTION    = 15.75702812
ECCENTRICITY   = .00012561
INCLINATION    = 97.2838
RA_OF_ASC_NODE = 41.6810
ARG_OF_PERICENTER = 88.7027
MEAN_ANOMALY   = 3.2197

EPHEMERIS_TYPE = 0
CLASSIFICATION_TYPE = U
NORAD_CAT_ID   = 68113
ELEMENT_SET_NO = 999
REV_AT_EPOCH   = 331
BSTAR          = -.52464243E-2
MEAN_MOTION_DOT = -.735006E-2
MEAN_MOTION_DDOT = 0

CCSDS_OMM_VERS = 2.0
CREATION_DATE  = 
ORIGINATOR     = 

OBJECT_NAME    = STARLINK-36229
OBJECT_ID      = 2026-044P
CENTER_NAME    = EARTH
REF_FRAME      = TEME
TIME_SYSTEM    = UTC
MEAN_ELEMENT_THEORY = SGP/SGP4

EPOCH          = 2026-03-21T22:00:00.999936
MEAN_MOTION    = 15.76382121
ECCENTRICITY   = .00012867
INCLINATION    = 97.2836
RA_OF_ASC_NODE = 41.6791
ARG_OF_PERICENTER = 91.6926
MEAN_ANOMALY   = 357.7481

EPHEMERIS_TYPE = 0
CLASSIFICATION_TYPE = U
NORAD_CAT_ID   = 68114
ELEMENT_SET_NO = 999
REV_AT_EPOCH   = 336
BSTAR          = -.10584218E-1
MEAN_MOTION_DOT = -.1469078E-1
MEAN_MOTION_DDOT = 0

CCSDS_OMM_VERS = 2.0
CREATION_DATE  = 
ORIGINATOR     = 

OBJECT_NAME    = STARLINK-36392
OBJECT_ID      = 2026-044Q
CENTER_NAME    = EARTH
REF_FRAME      = TEME
TIME_SYSTEM    = UTC
MEAN_ELEMENT_THEORY = SGP/SGP4

EPOCH          = 2026-03-21T22:00:00.999936
MEAN_MOTION    = 15.76264585
ECCENTRICITY   = .00018414
INCLINATION    = 97.2836
RA_OF_ASC_NODE = 41.6839
ARG_OF_PERICENTER = 79.3200
MEAN_ANOMALY   = 18.2477

EPHEMERIS_TYPE = 0
CLASSIFICATION_TYPE = U
NORAD_CAT_ID   = 68115
ELEMENT_SET_NO = 999
REV_AT_EPOCH   = 336
BSTAR          = -.1036599E-1
MEAN_MOTION_DOT = -.1435987E-1
MEAN_MOTION_DDOT = 0

